ONEWEB-0620             
1 55161U 23004X   24117.55408054  .00000119  00000+0  29984-3 0  9998
2 55161  87.9003 176.5780 0002521  94.0368 266.1048 13.11416583 63381
ONEWEB-0621             
1 55162U 23004Y   24117.58004615 -.00000405  00000+0 -11774-2 0  9994
2 55162  87.9003 176.5432 0001780  88.4757 271.6575 13.11418281 63362
ONEWEB-0622             
1 55163U 23004Z   24117.58653732 -.00000228  00000+0 -67957-3 0  9993
2 55163  87.9008 176.5575 0002628  80.3150 279.8275 13.11418208 63351
ONEWEB-0623             
1 55164U 23004AA  24117.55934661 -.00001023  00000+0 -26675-2 0  9999
2 55164  87.9198 161.4406 0002436  75.5026 284.6376 13.17654863 64658
ONEWEB-0624             
1 55165U 23004AB  24117.61267936  .00000490  00000+0  13271-2 0  9994
2 55165  87.8953 146.2411 0002006  86.7333 273.4025 13.12442697 65532
ONEWEB-0625             
1 55166U 23004AC  24117.54827302  .00000049  00000+0  92740-4 0  9996
2 55166  87.9200 161.4417 0001660  95.6624 264.4697 13.17652348 64648
ONEWEB-0626             
1 55167U 23004AD  24117.61471260 -.00000149  00000+0 -41811-3 0  9998
2 55167  87.9200 161.4298 0002644  99.4445 260.6985 13.17648105 64657
ONEWEB-0627             
1 55168U 23004AE  24117.60363979  .00000074  00000+0  15643-3 0  9994
2 55168  87.9199 161.4333 0002578  80.3125 279.8298 13.17652212 64658
